{"fetched_at": "2026-06-04T18:22:40.326162+00:00", "line1": "1 44910U 19097A   26155.10530963  .00000146  00000+0  00000+0 0  9999", "line2": "2 44910   4.8855  75.2228 0013759  51.4947 208.4936  1.00273442 23562"}
{"fetched_at": "2026-06-22T01:52:42.860536+00:00", "line1": "1 44910U 19097A   26171.26850186  .00000130  00000+0  00000+0 0  9999", "line2": "2 44910   4.9274  75.0271 0014829  52.9458 281.9613  1.00266805 23727"}
